[{"OBJECT_NAME":"NAHLA","OBJECT_ID":"2025-276DC","EPOCH":"2026-03-09T17:58:03.160416","MEAN_MOTION":15.18321471,"ECCENTRICITY":0.00019909,"INCLINATION":97.4271,"RA_OF_ASC_NODE":143.9992,"ARG_OF_PERICENTER":353.62,"MEAN_ANOMALY":6.5008,"EPHEMERIS_TYPE":0,"CLASSIFICATION_TYPE":"U","NORAD_CAT_ID":66764,"ELEMENT_SET_NO":999,"REV_AT_EPOCH":1532,"BSTAR":0.00020881065,"MEAN_MOTION_DOT":4.218e-5,"MEAN_MOTION_DDOT":0},{"OBJECT_NAME":"T.MICROSAT-1","OBJECT_ID":"2025-276DE","EPOCH":"2026-03-09T18:04:16.042944","MEAN_MOTION":15.19633457,"ECCENTRICITY":0.00017032,"INCLINATION":97.4229,"RA_OF_ASC_NODE":144.0903,"ARG_OF_PERICENTER":122.7735,"MEAN_ANOMALY":237.3665,"EPHEMERIS_TYPE":0,"CLASSIFICATION_TYPE":"U","NORAD_CAT_ID":66766,"ELEMENT_SET_NO":999,"REV_AT_EPOCH":1533,"BSTAR":0.00037369348,"MEAN_MOTION_DOT":7.899e-5,"MEAN_MOTION_DDOT":0}]
